{
  "norad_id": 66397,
  "name": "STARLINK-35510",
  "history": [
    {
      "epoch": "2026-03-28T19:12:33.438528Z",
      "apogee_km": 476.25420417576333,
      "perigee_km": 474.11048588463746,
      "latitude_deg": 2.933139662158984e-05,
      "longitude_deg": 13.597761322643272,
      "height_km": 475.8003815896237,
      "semi_major_axis_km": 6853.3193450302,
      "eccentricity": 0.0001564,
      "inclination_deg": 53.1568,
      "raan_deg": 127.9527,
      "arg_perigee_deg": 74.8921,
      "mean_anomaly_deg": 285.2253,
      "mean_motion_rev_day": 15.3021096
    },
    {
      "epoch": "2026-03-30T02:33:37.543392Z",
      "apogee_km": 476.01507721834514,
      "perigee_km": 474.33327465576986,
      "latitude_deg": -2.1052286457757143e-06,
      "longitude_deg": -104.02411072673151,
      "height_km": 475.7891990953419,
      "semi_major_axis_km": 6853.311175937058,
      "eccentricity": 0.0001227,
      "inclination_deg": 53.1577,
      "raan_deg": 121.8855,
      "arg_perigee_deg": 70.3356,
      "mean_anomaly_deg": 289.7777,
      "mean_motion_rev_day": 15.30213696
    },
    {
      "epoch": "2026-03-30T05:41:43.853568Z",
      "apogee_km": 476.18471875944124,
      "perigee_km": 474.2820860683232,
      "latitude_deg": 2.5482818447015182e-05,
      "longitude_deg": -151.78633583326345,
      "height_km": 476.0225316877437,
      "semi_major_axis_km": 6853.370402413882,
      "eccentricity": 0.00013881,
      "inclination_deg": 53.1576,
      "raan_deg": 121.2783,
      "arg_perigee_deg": 83.449,
      "mean_anomaly_deg": 276.6669,
      "mean_motion_rev_day": 15.3019386
    },
    {
      "epoch": "2026-03-30T08:49:50.403072Z",
      "apogee_km": 476.2538276999303,
      "perigee_km": 474.2076862224121,
      "latitude_deg": -7.085409588104666e-06,
      "longitude_deg": 160.4529943072407,
      "height_km": 476.0395649333453,
      "semi_major_axis_km": 6853.367756961171,
      "eccentricity": 0.00014928,
      "inclination_deg": 53.1582,
      "raan_deg": 120.6737,
      "arg_perigee_deg": 85.0221,
      "mean_anomaly_deg": 275.095,
      "mean_motion_rev_day": 15.30194746
    },
    {
      "epoch": "2026-03-31T11:28:44.131584Z",
      "apogee_km": 475.76485500913714,
      "perigee_km": 474.3621419311103,
      "latitude_deg": -2.1535440444745755e-05,
      "longitude_deg": 114.4782110779599,
      "height_km": 475.6831931320428,
      "semi_major_axis_km": 6853.200498470123,
      "eccentricity": 0.00010234,
      "inclination_deg": 53.1584,
      "raan_deg": 115.5172,
      "arg_perigee_deg": 66.5875,
      "mean_anomaly_deg": 293.5233,
      "mean_motion_rev_day": 15.30250765
    },
    {
      "epoch": "2026-04-01T18:49:48.569088Z",
      "apogee_km": 476.0725894638981,
      "perigee_km": 474.3702152367541,
      "latitude_deg": 3.587270524670395e-06,
      "longitude_deg": -3.1479074771691296,
      "height_km": 475.97600713305843,
      "semi_major_axis_km": 6853.358402350326,
      "eccentricity": 0.0001242,
      "inclination_deg": 53.1589,
      "raan_deg": 109.4471,
      "arg_perigee_deg": 80.3,
      "mean_anomaly_deg": 279.8141,
      "mean_motion_rev_day": 15.30197879
    },
    {
      "epoch": "2026-04-02T18:20:36.151584Z",
      "apogee_km": 476.04570569926454,
      "perigee_km": 474.21725366888586,
      "latitude_deg": 3.28787459080958e-05,
      "longitude_deg": -1.364098778356041,
      "height_km": 476.02592538683496,
      "semi_major_axis_km": 6853.268479684075,
      "eccentricity": 0.0001334,
      "inclination_deg": 53.1597,
      "raan_deg": 104.8948,
      "arg_perigee_deg": 89.7797,
      "mean_anomaly_deg": 270.3357,
      "mean_motion_rev_day": 15.30227996
    },
    {
      "epoch": "2026-04-02T18:20:36.153312Z",
      "apogee_km": 476.04604836268936,
      "perigee_km": 474.21691100546195,
      "latitude_deg": 2.826509160191578e-05,
      "longitude_deg": -1.364109435471527,
      "height_km": 476.02592406915903,
      "semi_major_axis_km": 6853.268479684075,
      "eccentricity": 0.00013345,
      "inclination_deg": 53.1597,
      "raan_deg": 104.8948,
      "arg_perigee_deg": 89.7797,
      "mean_anomaly_deg": 270.3357,
      "mean_motion_rev_day": 15.30227996
    }
  ]
}